GLOBALSTAR M075         
1 37192U 10054E   25179.95672414 -.00000107  00000+0 -16346-4 0  9997
2 37192  51.9927 145.7006 0000298  33.2355   3.1758 12.62265850677337
GLOBALSTAR M073         
1 37193U 10054F   25179.95162699 -.00000081  00000+0  12595-3 0  9998
2 37193  52.0073  59.5439 0000836  55.7803 317.4741 12.62272204679324
GLOBALSTAR M083         
1 37739U 11033A   25179.82693331 -.00000149  00000+0 -25178-3 0  9997
2 37739  51.9877   8.6405 0000672  91.5863  13.7480 12.62259176648325
GLOBALSTAR M088         
1 37740U 11033B   25179.97326538 -.00000055  00000+0  27467-3 0  9995
2 37740  52.0217 273.7661 0000663 138.0818  33.2390 12.62266403643887
GLOBALSTAR M091         
1 37741U 11033C   25179.90703847 -.00000095  00000+0  48225-4 0  9991
2 37741  51.9984 237.4542 0000424 185.5569 345.0726 12.62269127644667
GLOBALSTAR M085         
1 37742U 11033D   25179.41419714 -.00000118  00000+0 -78129-4 0  9998
2 37742  51.9839 189.9808 0000215 239.1473 271.3785 12.62269609645113
GLOBALSTAR M081         
1 37743U 11033E   25180.21720920 -.00000109  00000+0 -29010-4 0  9998
2 37743  51.9931 190.3322 0000195 310.6707 129.2261 12.62266927645745
GLOBALSTAR M089         
1 37744U 11033F   25180.09824950 -.00000108  00000+0 -24248-4 0  9990
2 37744  51.9910 144.9171 0000553  45.7332  34.6218 12.62265096646443
